[{"OBJECT_NAME":"CRYOSAT 2","OBJECT_ID":"2010-013A","EPOCH":"2026-03-09T23:23:15.606816","MEAN_MOTION":14.51908976,"ECCENTRICITY":0.00021015,"INCLINATION":92.0227,"RA_OF_ASC_NODE":253.2602,"ARG_OF_PERICENTER":89.6126,"MEAN_ANOMALY":270.5322,"EPHEMERIS_TYPE":0,"CLASSIFICATION_TYPE":"U","NORAD_CAT_ID":36508,"ELEMENT_SET_NO":999,"REV_AT_EPOCH":84368,"BSTAR":7.5819488e-5,"MEAN_MOTION_DOT":3.08e-6,"MEAN_MOTION_DDOT":0},{"OBJECT_NAME":"IRIDIUM 33 DEB","OBJECT_ID":"1997-051GZ","EPOCH":"2026-03-09T11:21:48.011904","MEAN_MOTION":14.39128772,"ECCENTRICITY":0.00617787,"INCLINATION":86.3668,"RA_OF_ASC_NODE":65.8253,"ARG_OF_PERICENTER":248.2298,"MEAN_ANOMALY":111.2319,"EPHEMERIS_TYPE":0,"CLASSIFICATION_TYPE":"U","NORAD_CAT_ID":34508,"ELEMENT_SET_NO":999,"REV_AT_EPOCH":88556,"BSTAR":0.0012115134,"MEAN_MOTION_DOT":3.85e-5,"MEAN_MOTION_DDOT":0}]
